KUIPER-00016            
1 63732U 25088J   25244.69414107  .00002407  00000+0  34493-3 0  9991
2 63732  51.8984 227.3310 0010524 160.7211 199.4151 14.79901676 19343
KUIPER-00018            
1 63733U 25088K   25244.91668981 -.00859757  00000+0 -71359-1 0  9998
2 63733  51.8857 215.7843 0011055 177.6167 286.4439 15.01111689  3603
KUIPER-00019            
1 63734U 25088L   25244.91668981 -.00976237  00000+0 -85187-1 0  9996
2 63734  51.9033 214.6882 0008350 186.7125  99.3650 14.99145015  5290
KUIPER-00020            
1 63735U 25088M   25244.91668981  .00030352  00000+0  32102-2 0  9994
2 63735  51.8950 217.9466 0009480 171.1943 189.0285 14.88910317  4263
KUIPER-00021            
1 63736U 25088N   25244.91668981 -.00034686  00000+0 -38956-2 0  9994
2 63736  51.9084 218.9227 0006670 168.7096 188.9631 14.86275719  5620
KUIPER-00023            
1 63737U 25088P   25244.91668981 -.00212842  00000+0 -25964-1 0  9991
2 63737  51.9133 220.3249 0010260 187.7636 210.5949 14.84156105  5571
KUIPER-00024            
1 63738U 25088Q   25244.91668981 -.00846877  00000+0 -50685-1 0  9991
2 63738  51.8837 210.7466 0003260 145.9015 197.0992 15.13126838  4710
KUIPER-00025            
1 63739U 25088R   25244.91668981 -.02303380  00000+0 -26275+0 0  9997
2 63739  51.8952 216.5227 0010147 168.9232 161.4949 14.89323856  4882
